[{"OBJECT_NAME":"CELESTIS-02 & TAURUS R/B","OBJECT_ID":"1998-007D","EPOCH":"2026-03-06T16:00:06.666048","MEAN_MOTION":14.2245229,"ECCENTRICITY":0.00632939,"INCLINATION":108.008,"RA_OF_ASC_NODE":125.3551,"ARG_OF_PERICENTER":307.0755,"MEAN_ANOMALY":209.8522,"EPHEMERIS_TYPE":0,"CLASSIFICATION_TYPE":"U","NORAD_CAT_ID":25160,"ELEMENT_SET_NO":999,"REV_AT_EPOCH":45593,"BSTAR":7.1146965e-5,"MEAN_MOTION_DOT":3.2e-7,"MEAN_MOTION_DDOT":0}]
