CELESTIS-02 & TAURUS R/B
1 25160U 98007D   26065.66674382  .00000032  00000+0  71147-4 0  9997
2 25160 108.0080 125.3551 0063293 307.0755 209.8522 14.22452290455930
